{
  "type": "FeatureCollection",
  "features": [
    {
      "type": "Feature",
      "properties": {
        "norad_id": 31307,
        "name": "GALAXY 17 (G-17)",
        "group": "intelsat",
        "lat": -2.500412044178632,
        "lon": -15.658580331205254,
        "alt_km": 35787.129784469784,
        "timestamp": "2025-12-19T22:41:52.046922+00:00",
        "meta_object_name": "GALAXY 17 (G-17)",
        "meta_object_id": "2007-016B",
        "meta_epoch": "2025-12-19T12:51:34.890336",
        "meta_mean_motion": 1.00272466,
        "meta_eccentricity": 0.0005441,
        "meta_inclination": 2.5163,
        "meta_ra_of_asc_node": 82.2108,
        "meta_arg_of_pericenter": 169.7532,
        "meta_mean_anomaly": 304.3514,
        "meta_ephemeris_type": 0,
        "meta_classification_type": "U",
        "meta_norad_cat_id": 31307,
        "meta_element_set_no": 999,
        "meta_rev_at_epoch": 6800,
        "meta_bstar": 0,
        "meta_mean_motion_dot": -1.84e-06,
        "meta_mean_motion_ddot": 0,
        "tle_line1": "1 31307U 07016B   25353.53582049 -.00000184  00000+0  00000+0 0  9994",
        "tle_line2": "2 31307   2.5163  82.2108 0005441 169.7532 304.3514  1.00272466 68003"
      },
      "geometry": {
        "type": "Point",
        "coordinates": [
          -15.658580331205254,
          -2.500412044178632
        ]
      }
    },
    {
      "type": "Feature",
      "properties": {
        "norad_id": 31862,
        "name": "DIRECTV 10",
        "group": "intelsat",
        "lat": 0.0031682408709667563,
        "lon": -33.560767670670835,
        "alt_km": 35787.32356458443,
        "timestamp": "2025-12-19T22:41:52.046934+00:00",
        "meta_object_name": "DIRECTV 10",
        "meta_object_id": "2007-032A",
        "meta_epoch": "2025-12-19T16:12:00.693792",
        "meta_mean_motion": 1.00269963,
        "meta_eccentricity": 2.45e-05,
        "meta_inclination": 0.0206,
        "meta_ra_of_asc_node": 171.3699,
        "meta_arg_of_pericenter": 19.9957,
        "meta_mean_anomaly": 37.3529,
        "meta_ephemeris_type": 0,
        "meta_classification_type": "U",
        "meta_norad_cat_id": 31862,
        "meta_element_set_no": 999,
        "meta_rev_at_epoch": 4379,
        "meta_bstar": 0,
        "meta_mean_motion_dot": -7.8e-07,
        "meta_mean_motion_ddot": 0,
        "tle_line1": "1 31862U 07032A   25353.67500803 -.00000078  00000+0  00000+0 0  9993",
        "tle_line2": "2 31862   0.0206 171.3699 0000245  19.9957  37.3529  1.00269963 43795"
      },
      "geometry": {
        "type": "Point",
        "coordinates": [
          -33.560767670670835,
          0.0031682408709667563
        ]
      }
    },
    {
      "type": "Feature",
      "properties": {
        "norad_id": 32253,
        "name": "INTELSAT 11 (IS-11)",
        "group": "intelsat",
        "lat": -0.15518448301991558,
        "lon": -96.74466113643497,
        "alt_km": 36096.084733951844,
        "timestamp": "2025-12-19T22:41:52.046946+00:00",
        "meta_object_name": "INTELSAT 11 (IS-11)",
        "meta_object_id": "2007-044B",
        "meta_epoch": "2025-12-19T15:54:17.392320",
        "meta_mean_motion": 0.99051924,
        "meta_eccentricity": 0.0008546,
        "meta_inclination": 3.0972,
        "meta_ra_of_asc_node": 80.9007,
        "meta_arg_of_pericenter": 168.5699,
        "meta_mean_anomaly": 272.8399,
        "meta_ephemeris_type": 0,
        "meta_classification_type": "U",
        "meta_norad_cat_id": 32253,
        "meta_element_set_no": 999,
        "meta_rev_at_epoch": 6667,
        "meta_bstar": 0,
        "meta_mean_motion_dot": -3.8e-07,
        "meta_mean_motion_ddot": 0,
        "tle_line1": "1 32253U 07044B   25353.66270130 -.00000038  00000+0  00000+0 0  9993",
        "tle_line2": "2 32253   3.0972  80.9007 0008546 168.5699 272.8399  0.99051924 66673"
      },
      "geometry": {
        "type": "Point",
        "coordinates": [
          -96.74466113643497,
          -0.15518448301991558
        ]
      }
    },
    {
      "type": "Feature",
      "properties": {
        "norad_id": 32388,
        "name": "HORIZONS-2",
        "group": "intelsat",
        "lat": -2.1380445222118345,
        "lon": -4.4818332124020674,
        "alt_km": 35782.8378485479,
        "timestamp": "2025-12-19T22:41:52.046958+00:00",
        "meta_object_name": "HORIZONS-2",
        "meta_object_id": "2007-063B",
        "meta_epoch": "2025-12-19T11:12:06.914880",
        "meta_mean_motion": 1.00272112,
        "meta_eccentricity": 0.0004573,
        "meta_inclination": 2.1381,
        "meta_ra_of_asc_node": 82.8899,
        "meta_arg_of_pericenter": 193.0315,
        "meta_mean_anomaly": 266.6388,
        "meta_ephemeris_type": 0,
        "meta_classification_type": "U",
        "meta_norad_cat_id": 32388,
        "meta_element_set_no": 999,
        "meta_rev_at_epoch": 6601,
        "meta_bstar": 0,
        "meta_mean_motion_dot": -2.31e-06,
        "meta_mean_motion_ddot": 0,
        "tle_line1": "1 32388U 07063B   25353.46674670 -.00000231  00000+0  00000+0 0  9993",
        "tle_line2": "2 32388   2.1381  82.8899 0004573 193.0315 266.6388  1.00272112 66014"
      },
      "geometry": {
        "type": "Point",
        "coordinates": [
          -4.4818332124020674,
          -2.1380445222118345
        ]
      }
    },
    {
      "type": "Feature",
      "properties": {
        "norad_id": 32729,
        "name": "DIRECTV 11",
        "group": "intelsat",
        "lat": 0.0033174984709384444,
        "lon": -29.94116398663705,
        "alt_km": 35788.467130273624,
        "timestamp": "2025-12-19T22:41:52.046970+00:00",
        "meta_object_name": "DIRECTV 11",
        "meta_object_id": "2008-013A",
        "meta_epoch": "2025-12-19T12:47:20.296320",
        "meta_mean_motion": 1.0027114,
        "meta_eccentricity": 5.44e-05,
        "meta_inclination": 0.0444,
        "meta_ra_of_asc_node": 196.1634,
        "meta_arg_of_pericenter": 330.0359,
        "meta_mean_anomaly": 14.8298,
        "meta_ephemeris_type": 0,
        "meta_classification_type": "U",
        "meta_norad_cat_id": 32729,
        "meta_element_set_no": 999,
        "meta_rev_at_epoch": 4379,
        "meta_bstar": 0,
        "meta_mean_motion_dot": -1.01e-06,
        "meta_mean_motion_ddot": 0,
        "tle_line1": "1 32729U 08013A   25353.53287380 -.00000101  00000+0  00000+0 0  9990",
        "tle_line2": "2 32729   0.0444 196.1634 0000544 330.0359  14.8298  1.00271140 43794"
      },
      "geometry": {
        "type": "Point",
        "coordinates": [
          -29.94116398663705,
          0.0033174984709384444
        ]
      }
    },
    {
      "type": "Feature",
      "properties": {
        "norad_id": 32951,
        "name": "GALAXY 18 (G-18)",
        "group": "intelsat",
        "lat": -0.0298175051055682,
        "lon": -53.74719398516417,
        "alt_km": 35776.36119133323,
        "timestamp": "2025-12-19T22:41:52.046981+00:00",
        "meta_object_name": "GALAXY 18 (G-18)",
        "meta_object_id": "2008-024A",
        "meta_epoch": "2025-12-19T17:48:48.275424",
        "meta_mean_motion": 1.00270899,
        "meta_eccentricity": 0.0002814,
        "meta_inclination": 0.0134,
        "meta_ra_of_asc_node": 45.0802,
        "meta_arg_of_pericenter": 227.8761,
        "meta_mean_anomaly": 319.8233,
        "meta_ephemeris_type": 0,
        "meta_classification_type": "U",
        "meta_norad_cat_id": 32951,
        "meta_element_set_no": 999,
        "meta_rev_at_epoch": 4405,
        "meta_bstar": 0,
        "meta_mean_motion_dot": 5e-07,
        "meta_mean_motion_ddot": 0,
        "tle_line1": "1 32951U 08024A   25353.74222541  .00000050  00000+0  00000+0 0  9992",
        "tle_line2": "2 32951   0.0134  45.0802 0002814 227.8761 319.8233  1.00270899 44055"
      },
      "geometry": {
        "type": "Point",
        "coordinates": [
          -53.74719398516417,
          -0.0298175051055682
        ]
      }
    },
    {
      "type": "Feature",
      "properties": {
        "norad_id": 33153,
        "name": "INTELSAT 25 (IS-25)",
        "group": "intelsat",
        "lat": -1.5639627806566287,
        "lon": 37.803021998710186,
        "alt_km": 35799.279820419826,
        "timestamp": "2025-12-19T22:41:52.046993+00:00",
        "meta_object_name": "INTELSAT 25 (IS-25)",
        "meta_object_id": "2008-034A",
        "meta_epoch": "2025-12-19T18:15:00.764064",
        "meta_mean_motion": 1.00270284,
        "meta_eccentricity": 0.0004793,
        "meta_inclination": 2.2448,
        "meta_ra_of_asc_node": 82.5753,
        "meta_arg_of_pericenter": 187.0495,
        "meta_mean_anomaly": 61.2247,
        "meta_ephemeris_type": 0,
        "meta_classification_type": "U",
        "meta_norad_cat_id": 33153,
        "meta_element_set_no": 999,
        "meta_rev_at_epoch": 6389,
        "meta_bstar": 0,
        "meta_mean_motion_dot": -2.02e-06,
        "meta_mean_motion_ddot": 0,
        "tle_line1": "1 33153U 08034A   25353.76042551 -.00000202  00000+0  00000+0 0  9991",
        "tle_line2": "2 33153   2.2448  82.5753 0004793 187.0495  61.2247  1.00270284 63896"
      },
      "geometry": {
        "type": "Point",
        "coordinates": [
          37.803021998710186,
          -1.5639627806566287
        ]
      }
    }
  ]
}